{"fetched_at":"2026-03-29T16:36:15Z","count":15609,"tles":[{"name":"STARLINK-5122","line1":"1 54179U 22141Y   26087.79687468 -.00000470  00000+0 -11456-4 0  9997","line2":"2 54179  53.2163 278.2369 0001454  89.8410 270.2749 15.08843312188743","category":"Starlink"}]}